GSAT0215 (GALILEO 19)   
1 43055U 17079A   26062.43085966  .00000010  00000+0  00000+0 0  9997
2 43055  55.1080 224.4135 0000631  13.1955 346.7446  1.70474475 51181
GSAT0216 (GALILEO 20)   
1 43056U 17079B   26063.89524153  .00000013  00000+0  00000+0 0  9998
2 43056  55.1080 224.3734 0001703 320.6652  39.2594  1.70474648 51222
GSAT0217 (GALILEO 21)   
1 43057U 17079C   26065.28916355  .00000020  00000+0  00000+0 0  9991
2 43057  55.1073 224.3328 0002074 355.7864   4.1520  1.70474591 51238
GSAT0218 (GALILEO 22)   
1 43058U 17079D   26063.74946031  .00000013  00000+0  00000+0 0  9997
2 43058  55.1048 224.3730 0001921 303.9467  55.9718  1.70474529 51236
GSAT0221 (GALILEO 25)   
1 43564U 18060A   26059.54670036 -.00000105  00000+0  00000+0 0  9995
2 43564  57.2051 344.7173 0005804 306.7848  53.1689  1.70475369 47315
GSAT0222 (GALILEO 26)   
1 43565U 18060B   26055.66007047 -.00000092  00000+0  00000+0 0  9996
2 43565  57.2093 344.8256 0004435 285.4820  74.4799  1.70474973 47292
GSAT0219 (GALILEO 23)   
1 43566U 18060C   26065.26653775 -.00000104  00000+0  00000+0 0  9993
2 43566  57.2056 344.5677 0004933 321.2111  38.7755  1.70475265 47437
GSAT0220 (GALILEO 24)   
1 43567U 18060D   26058.44840234 -.00000102  00000+0  00000+0 0  9992
2 43567  57.2075 344.7516 0005301 308.5821  51.3768  1.70475159 47302
GSAT0223 (GALILEO 27)   
1 49809U 21116A   26048.03988929 -.00000078  00000+0  00000+0 0  9993
2 49809  57.2005 344.9238 0002865 278.1950 264.6358  1.70475508 26130
GSAT0224 (GALILEO 28)   
1 49810U 21116B   26064.29072237 -.00000105  00000+0  00000+0 0  9998
2 49810  57.1948 344.4822 0001942 295.2728 253.6293  1.70475760 26438
GSAT0225 (GALILEO 29)   
1 59598U 24079A   26064.58030672  .00000007  00000+0  00000+0 0  9992
2 59598  55.0507 103.9743 0002603 257.7426 101.8321  1.70474989 11547
GSAT0227 (GALILEO 30)   
1 59600U 24079C   26062.41821347  .00000012  00000+0  00000+0 0  9999
2 59600  55.0440 104.0338 0000359  68.5105 291.5792  1.70474834 11567
GSAT0232 (GALILEO 32)   
1 61182U 24167A   26048.66150565  .00000069  00000+0  00000+0 0  9995
2 61182  55.2225 224.5881 0003600 296.6314 116.1306  1.70443939  8265
GSAT0226 (GALILEO 31)   
1 61183U 24167B   26063.09230740  .00000011  00000+0  00000+0 0  9991
2 61183  55.2176 224.2005 0001588 128.6581 232.0353  1.70474186  9066
GSAT0233 (GALILEO 33)   
1 67160U 25302A   26044.50000000 -.00000008  00000+0  00000+0 0  9990
2 67160  54.3935 105.2952 0003011 207.0582 359.4109  1.70474578    20
GSAT0234 (GALILEO 34)   
1 67162U 25302C   26044.50000000 -.00000008  00000+0  00000+0 0  9992
2 67162  54.3967 105.2938 0003081 266.8423 119.7309  1.70475065   127
